SL-14 R/B               
1 18749U 88001B   25333.84490034  .00000561  00000+0  62191-4 0  9998
2 18749  82.5120 289.2764 0017317 203.9392 156.1021 14.85401360 27203
COSMOS 1933             
1 18958U 88020A   25333.75868235  .00003623  00000+0  18216-3 0  9993
2 18958  82.5138 349.7048 0004568 164.4508 195.6866 15.16947245 35076
SL-3 R/B                
1 19046U 88032B   25333.81520414  .00005506  00000+0  26778-3 0  9990
2 19046  97.5069 312.6284 0025382 219.0193 140.9210 15.18539932 36944
SL-16 R/B               
1 19120U 88039B   25333.57024950 -.00000107  00000+0 -27820-4 0  9991
2 19120  71.0145 280.2431 0020213 138.3213 221.9457 14.19592947944178
COSMOS 1953             
1 19210U 88050A   25333.85900201  .00006297  00000+0  23795-3 0  9997
2 19210  82.5085 258.5028 0013679 110.5892 249.6816 15.26703632 22549
SL-8 R/B                
1 19257U 88053B   25333.62965024  .00000251  00000+0  89778-4 0  9998
2 19257  74.0472 296.8819 0019354 145.6545  27.5145 14.38846297962200
COSMOS 1975             
1 19573U 88093A   25333.73466286  .00007449  00000+0  28644-3 0  9991
2 19573  82.5211 217.8437 0011871 153.9256 206.2583 15.26174554  4153
SL-14 R/B               
1 19574U 88093B   25333.85260067  .00000535  00000+0  58908-4 0  9990
2 19574  82.5294 135.7610 0021030  12.7464 102.3204 14.85526801986219
SL-16 R/B               
1 19650U 88102B   25333.81464046  .00000021  00000+0  34529-4 0  9998
2 19650  71.0007   1.6398 0013645 172.8649 187.2671 14.16137111912753
INTERCOSMOS 24          
1 20261U 89080A   25333.79379334  .00000775  00000+0  22248-3 0  9996
2 20261  82.6045 169.3704 1188655 164.5439 199.5548 12.59403420654224
SL-14 R/B               
1 20262U 89080C   25333.70316328  .00000438  00000+0  12416-3 0  9994
2 20262  82.5940 237.3870 1230873  53.3761 317.4295 12.50396706647659
DELTA 1 R/B             
1 20323U 89089B   25333.60250477  .00000379  00000+0  10241-3 0  9990
2 20323  97.0762 191.9215 0070701  79.0441 281.8701 14.50555261881223
