CCSDS_OMM_VERS = 2.0
CREATION_DATE  = 
ORIGINATOR     = 

OBJECT_NAME    = SL-14 R/B
OBJECT_ID      = 1988-001B
CENTER_NAME    = EARTH
REF_FRAME      = TEME
TIME_SYSTEM    = UTC
MEAN_ELEMENT_THEORY = SGP/SGP4

EPOCH          = 2025-11-29T20:16:39.389376
MEAN_MOTION    = 14.85401360
ECCENTRICITY   = .0017317
INCLINATION    = 82.5120
RA_OF_ASC_NODE = 289.2764
ARG_OF_PERICENTER = 203.9392
MEAN_ANOMALY   = 156.1021

EPHEMERIS_TYPE = 0
CLASSIFICATION_TYPE = U
NORAD_CAT_ID   = 18749
ELEMENT_SET_NO = 999
REV_AT_EPOCH   = 2720
BSTAR          = .62191E-4
MEAN_MOTION_DOT = .561E-5
MEAN_MOTION_DDOT = 0

CCSDS_OMM_VERS = 2.0
CREATION_DATE  = 
ORIGINATOR     = 

OBJECT_NAME    = COSMOS 1933
OBJECT_ID      = 1988-020A
CENTER_NAME    = EARTH
REF_FRAME      = TEME
TIME_SYSTEM    = UTC
MEAN_ELEMENT_THEORY = SGP/SGP4

EPOCH          = 2025-11-29T18:12:30.155040
MEAN_MOTION    = 15.16947245
ECCENTRICITY   = .0004568
INCLINATION    = 82.5138
RA_OF_ASC_NODE = 349.7048
ARG_OF_PERICENTER = 164.4508
MEAN_ANOMALY   = 195.6866

EPHEMERIS_TYPE = 0
CLASSIFICATION_TYPE = U
NORAD_CAT_ID   = 18958
ELEMENT_SET_NO = 999
REV_AT_EPOCH   = 3507
BSTAR          = .18216E-3
MEAN_MOTION_DOT = .3623E-4
MEAN_MOTION_DDOT = 0

CCSDS_OMM_VERS = 2.0
CREATION_DATE  = 
ORIGINATOR     = 

OBJECT_NAME    = SL-3 R/B
OBJECT_ID      = 1988-032B
CENTER_NAME    = EARTH
REF_FRAME      = TEME
TIME_SYSTEM    = UTC
MEAN_ELEMENT_THEORY = SGP/SGP4

EPOCH          = 2025-11-29T19:33:53.637696
MEAN_MOTION    = 15.18539932
ECCENTRICITY   = .0025382
INCLINATION    = 97.5069
RA_OF_ASC_NODE = 312.6284
ARG_OF_PERICENTER = 219.0193
MEAN_ANOMALY   = 140.9210

EPHEMERIS_TYPE = 0
CLASSIFICATION_TYPE = U
NORAD_CAT_ID   = 19046
ELEMENT_SET_NO = 999
REV_AT_EPOCH   = 3694
BSTAR          = .26778E-3
MEAN_MOTION_DOT = .5506E-4
MEAN_MOTION_DDOT = 0

CCSDS_OMM_VERS = 2.0
CREATION_DATE  = 
ORIGINATOR     = 

OBJECT_NAME    = SL-16 R/B
OBJECT_ID      = 1988-039B
CENTER_NAME    = EARTH
REF_FRAME      = TEME
TIME_SYSTEM    = UTC
MEAN_ELEMENT_THEORY = SGP/SGP4

EPOCH          = 2025-11-29T13:41:09.556800
MEAN_MOTION    = 14.19592947
ECCENTRICITY   = .0020213
INCLINATION    = 71.0145
RA_OF_ASC_NODE = 280.2431
ARG_OF_PERICENTER = 138.3213
MEAN_ANOMALY   = 221.9457

EPHEMERIS_TYPE = 0
CLASSIFICATION_TYPE = U
NORAD_CAT_ID   = 19120
ELEMENT_SET_NO = 999
REV_AT_EPOCH   = 94417
BSTAR          = -.2782E-4
MEAN_MOTION_DOT = -.107E-5
MEAN_MOTION_DDOT = 0

CCSDS_OMM_VERS = 2.0
CREATION_DATE  = 
ORIGINATOR     = 

OBJECT_NAME    = COSMOS 1953
OBJECT_ID      = 1988-050A
CENTER_NAME    = EARTH
REF_FRAME      = TEME
TIME_SYSTEM    = UTC
MEAN_ELEMENT_THEORY = SGP/SGP4

EPOCH          = 2025-11-29T20:36:57.773664
MEAN_MOTION    = 15.26703632
ECCENTRICITY   = .0013679
INCLINATION    = 82.5085
RA_OF_ASC_NODE = 258.5028
ARG_OF_PERICENTER = 110.5892
MEAN_ANOMALY   = 249.6816

EPHEMERIS_TYPE = 0
CLASSIFICATION_TYPE = U
NORAD_CAT_ID   = 19210
ELEMENT_SET_NO = 999
REV_AT_EPOCH   = 2254
BSTAR          = .23795E-3
MEAN_MOTION_DOT = .6297E-4
MEAN_MOTION_DDOT = 0

CCSDS_OMM_VERS = 2.0
CREATION_DATE  = 
ORIGINATOR     = 

OBJECT_NAME    = SL-8 R/B
OBJECT_ID      = 1988-053B
CENTER_NAME    = EARTH
REF_FRAME      = TEME
TIME_SYSTEM    = UTC
MEAN_ELEMENT_THEORY = SGP/SGP4

EPOCH          = 2025-11-29T15:06:41.780736
MEAN_MOTION    = 14.38846297
ECCENTRICITY   = .0019354
INCLINATION    = 74.0472
RA_OF_ASC_NODE = 296.8819
ARG_OF_PERICENTER = 145.6545
MEAN_ANOMALY   = 27.5145

EPHEMERIS_TYPE = 0
CLASSIFICATION_TYPE = U
NORAD_CAT_ID   = 19257
ELEMENT_SET_NO = 999
REV_AT_EPOCH   = 96220
BSTAR          = .89778E-4
MEAN_MOTION_DOT = .251E-5
MEAN_MOTION_DDOT = 0

CCSDS_OMM_VERS = 2.0
CREATION_DATE  = 
ORIGINATOR     = 

OBJECT_NAME    = COSMOS 1975
OBJECT_ID      = 1988-093A
CENTER_NAME    = EARTH
REF_FRAME      = TEME
TIME_SYSTEM    = UTC
MEAN_ELEMENT_THEORY = SGP/SGP4

EPOCH          = 2025-11-29T17:37:54.871104
MEAN_MOTION    = 15.26174554
ECCENTRICITY   = .0011871
INCLINATION    = 82.5211
RA_OF_ASC_NODE = 217.8437
ARG_OF_PERICENTER = 153.9256
MEAN_ANOMALY   = 206.2583

EPHEMERIS_TYPE = 0
CLASSIFICATION_TYPE = U
NORAD_CAT_ID   = 19573
ELEMENT_SET_NO = 999
REV_AT_EPOCH   = 415
BSTAR          = .28644E-3
MEAN_MOTION_DOT = .7449E-4
MEAN_MOTION_DDOT = 0

CCSDS_OMM_VERS = 2.0
CREATION_DATE  = 
ORIGINATOR     = 

OBJECT_NAME    = SL-14 R/B
OBJECT_ID      = 1988-093B
CENTER_NAME    = EARTH
REF_FRAME      = TEME
TIME_SYSTEM    = UTC
MEAN_ELEMENT_THEORY = SGP/SGP4

EPOCH          = 2025-11-29T20:27:44.697888
MEAN_MOTION    = 14.85526801
ECCENTRICITY   = .002103
INCLINATION    = 82.5294
RA_OF_ASC_NODE = 135.7610
ARG_OF_PERICENTER = 12.7464
MEAN_ANOMALY   = 102.3204

EPHEMERIS_TYPE = 0
CLASSIFICATION_TYPE = U
NORAD_CAT_ID   = 19574
ELEMENT_SET_NO = 999
REV_AT_EPOCH   = 98621
BSTAR          = .58908E-4
MEAN_MOTION_DOT = .535E-5
MEAN_MOTION_DDOT = 0

CCSDS_OMM_VERS = 2.0
CREATION_DATE  = 
ORIGINATOR     = 

OBJECT_NAME    = SL-16 R/B
OBJECT_ID      = 1988-102B
CENTER_NAME    = EARTH
REF_FRAME      = TEME
TIME_SYSTEM    = UTC
MEAN_ELEMENT_THEORY = SGP/SGP4

EPOCH          = 2025-11-29T19:33:04.935744
MEAN_MOTION    = 14.16137111
ECCENTRICITY   = .0013645
INCLINATION    = 71.0007
RA_OF_ASC_NODE = 1.6398
ARG_OF_PERICENTER = 172.8649
MEAN_ANOMALY   = 187.2671

EPHEMERIS_TYPE = 0
CLASSIFICATION_TYPE = U
NORAD_CAT_ID   = 19650
ELEMENT_SET_NO = 999
REV_AT_EPOCH   = 91275
BSTAR          = .34529E-4
MEAN_MOTION_DOT = .21E-6
MEAN_MOTION_DDOT = 0

CCSDS_OMM_VERS = 2.0
CREATION_DATE  = 
ORIGINATOR     = 

OBJECT_NAME    = INTERCOSMOS 24
OBJECT_ID      = 1989-080A
CENTER_NAME    = EARTH
REF_FRAME      = TEME
TIME_SYSTEM    = UTC
MEAN_ELEMENT_THEORY = SGP/SGP4

EPOCH          = 2025-11-29T19:03:03.744576
MEAN_MOTION    = 12.59403420
ECCENTRICITY   = .1188655
INCLINATION    = 82.6045
RA_OF_ASC_NODE = 169.3704
ARG_OF_PERICENTER = 164.5439
MEAN_ANOMALY   = 199.5548

EPHEMERIS_TYPE = 0
CLASSIFICATION_TYPE = U
NORAD_CAT_ID   = 20261
ELEMENT_SET_NO = 999
REV_AT_EPOCH   = 65422
BSTAR          = .22248E-3
MEAN_MOTION_DOT = .775E-5
MEAN_MOTION_DDOT = 0

CCSDS_OMM_VERS = 2.0
CREATION_DATE  = 
ORIGINATOR     = 

OBJECT_NAME    = SL-14 R/B
OBJECT_ID      = 1989-080C
CENTER_NAME    = EARTH
REF_FRAME      = TEME
TIME_SYSTEM    = UTC
MEAN_ELEMENT_THEORY = SGP/SGP4

EPOCH          = 2025-11-29T16:52:33.307392
MEAN_MOTION    = 12.50396706
ECCENTRICITY   = .1230873
INCLINATION    = 82.5940
RA_OF_ASC_NODE = 237.3870
ARG_OF_PERICENTER = 53.3761
MEAN_ANOMALY   = 317.4295

EPHEMERIS_TYPE = 0
CLASSIFICATION_TYPE = U
NORAD_CAT_ID   = 20262
ELEMENT_SET_NO = 999
REV_AT_EPOCH   = 64765
BSTAR          = .12416E-3
MEAN_MOTION_DOT = .438E-5
MEAN_MOTION_DDOT = 0

CCSDS_OMM_VERS = 2.0
CREATION_DATE  = 
ORIGINATOR     = 

OBJECT_NAME    = DELTA 1 R/B
OBJECT_ID      = 1989-089B
CENTER_NAME    = EARTH
REF_FRAME      = TEME
TIME_SYSTEM    = UTC
MEAN_ELEMENT_THEORY = SGP/SGP4

EPOCH          = 2025-11-29T14:27:36.412128
MEAN_MOTION    = 14.50555261
ECCENTRICITY   = .0070701
INCLINATION    = 97.0762
RA_OF_ASC_NODE = 191.9215
ARG_OF_PERICENTER = 79.0441
MEAN_ANOMALY   = 281.8701

EPHEMERIS_TYPE = 0
CLASSIFICATION_TYPE = U
NORAD_CAT_ID   = 20323
ELEMENT_SET_NO = 999
REV_AT_EPOCH   = 88122
BSTAR          = .10241E-3
MEAN_MOTION_DOT = .379E-5
MEAN_MOTION_DDOT = 0

